norad_id,name,regime,epoch,line1,line2,inclination,eccentricity,mean_motion,raan,arg_pericenter,mean_anomaly
25049,SIRIUS 2 (GE-1E),GEO,12351.57310021,1 25049U 97071A   12351.57310021 -.00000328  00000-0  10000-3 0  2985\,2 25049 003.5212 068.0548 0001150 339.4085 020.2606 00.99407408 55192,3.5212,0.000115,0.99407408,68.0548,339.4085,20.2606
25049,SIRIUS 2 (GE-1E),GEO,12353.58504862,1 25049U 97071A   12353.58504862 -.00000316  00000-0  10000-3 0  2994\,2 25049 003.5257 068.0361 0001136 335.1157 024.5883 00.99406481 55218,3.5257,0.0001136,0.99406481,68.0361,335.1157,24.5883
25049,SIRIUS 2 (GE-1E),GEO,12354.59098785,1 25049U 97071A   12354.59098785 -.00000305  00000-0  10000-3 0  3009\,2 25049 003.5281 068.0277 0001282 311.0652 048.6352 00.99405976 55223,3.5281,0.0001282,0.99405976,68.0277,311.0652,48.6352
25049,SIRIUS 2 (GE-1E),GEO,12355.59687608,1 25049U 97071A   12355.59687608  .00000000  00000-0  10000-3 0  3010\,2 25049 003.5247 068.0111 0001083 039.8937 319.8207 00.99402460 55230,3.5247,0.0001083,0.9940246,68.0111,39.8937,319.8207
25049,SIRIUS 2 (GE-1E),GEO,12356.60280297,1 25049U 97071A   12356.60280297 -.00000274  00000-0  10000-3 0  3010\,2 25049 003.5331 068.0112 0001765 301.5130 058.1596 00.99404961 55249,3.5331,0.0001765,0.99404961,68.0112,301.513,58.1596
25049,SIRIUS 2 (GE-1E),GEO,12358.61461215,1 25049U 97071A   12358.61461215 -.00000234  00000-0  10000-3 0  3021\,2 25049 003.5380 067.9938 0001901 299.8359 059.8046 00.99403933 55269,3.538,0.0001901,0.99403933,67.9938,299.8359,59.8046
25049,SIRIUS 2 (GE-1E),GEO,12360.62650036,1 25049U 97071A   12360.62650036 -.00000188  00000-0  10000-3 0  3035\,2 25049 003.5423 067.9748 0001932 300.1088 059.5228 00.99402925 55286,3.5423,0.0001932,0.99402925,67.9748,300.1088,59.5228
25049,SIRIUS 2 (GE-1E),GEO,12362.63850525,1 25049U 97071A   12362.63850525 -.00000138  00000-0  10000-3 0  3049\,2 25049 003.5468 067.9560 0002049 300.6812 058.9764 00.99402031 55306,3.5468,0.0002049,0.99402031,67.956,300.6812,58.9764
25049,SIRIUS 2 (GE-1E),GEO,12364.65060512,1 25049U 97071A   12364.65060512 -.00000086  00000-0  10000-3 0  3055\,2 25049 003.5513 067.9368 0002044 296.2924 063.4208 00.99401287 55320,3.5513,0.0002044,0.99401287,67.9368,296.2924,63.4208
25049,SIRIUS 2 (GE-1E),GEO,12366.66273677,1 25049U 97071A   12366.66273677 -.00000035  00000-0  10000-3 0  3061\,2 25049 003.5556 067.9174 0002036 296.3273 063.4464 00.99400690 55344,3.5556,0.0002036,0.9940069,67.9174,296.3273,63.4464
25049,SIRIUS 2 (GE-1E),GEO,13002.67480671,1 25049U 97071A   13002.67480671  .00000000  00000-0  10000-3 0  3087\,2 25049 003.5523 067.8831 0000486 220.2517 139.5757 00.99396856 55361,3.5523,4.86e-05,0.99396856,67.8831,220.2517,139.5757
25049,SIRIUS 2 (GE-1E),GEO,13002.67481112,1 25049U 97071A   13002.67481112  .00000013  00000-0  10000-3 0  3071\,2 25049 003.5599 067.8993 0002061 294.5367 065.2722 00.99400311 55360,3.5599,0.0002061,0.99400311,67.8993,294.5367,65.2722
25049,SIRIUS 2 (GE-1E),GEO,13004.68677167,1 25049U 97071A   13004.68677167  .00000052  00000-0  10000-3 0  3085\,2 25049 003.5642 067.8808 0002133 294.5884 065.2125 00.99400159 55387,3.5642,0.0002133,0.99400159,67.8808,294.5884,65.2125
25049,SIRIUS 2 (GE-1E),GEO,13006.69866502,1 25049U 97071A   13006.69866502  .00000080  00000-0  10000-3 0  3093\,2 25049 003.5686 067.8623 0002376 295.5357 064.2308 00.99400244 55405,3.5686,0.0002376,0.99400244,67.8623,295.5357,64.2308
25049,SIRIUS 2 (GE-1E),GEO,13008.71061268,1 25049U 97071A   13008.71061268  .00000096  00000-0  10000-3 0  3103\,2 25049 003.5729 067.8433 0002359 294.4841 065.2705 00.99400546 55428,3.5729,0.0002359,0.99400546,67.8433,294.4841,65.2705
25049,SIRIUS 2 (GE-1E),GEO,13010.72265826,1 25049U 97071A   13010.72265826  .00000000  00000-0  10000-3 0  3119\,2 25049 003.5693 067.8075 0000553 220.4722 139.3415 00.99397914 55448,3.5693,5.53e-05,0.99397914,67.8075,220.4722,139.3415
25049,SIRIUS 2 (GE-1E),GEO,13010.72269655,1 25049U 97071A   13010.72269655  .00000101  00000-0  10000-3 0  3115\,2 25049 003.5774 067.8234 0002499 297.5907 062.2007 00.99401031 55443,3.5774,0.0002499,0.99401031,67.8234,297.5907,62.2007
25049,SIRIUS 2 (GE-1E),GEO,13014.74694114,1 25049U 97071A   13014.74694114  .00000089  00000-0  10000-3 0  3129\,2 25049 003.5862 067.7914 0002797 296.9300 062.9709 00.99402457 55489,3.5862,0.0002797,0.99402457,67.7914,296.93,62.9709
25049,SIRIUS 2 (GE-1E),GEO,13016.75893553,1 25049U 97071A   13016.75893553  .00000073  00000-0  10000-3 0  3134\,2 25049 003.5906 067.7685 0002581 301.7712 058.1520 00.99403362 55503,3.5906,0.0002581,0.99403362,67.7685,301.7712,58.152
25049,SIRIUS 2 (GE-1E),GEO,13016.75902390,1 25049U 97071A   13016.75902390  .00000000  00000-0  10000-3 0  3145\,2 25049 003.5901 067.7873 0002956 302.3019 057.6278 00.99399597 55508,3.5901,0.0002956,0.99399597,67.7873,302.3019,57.6278
25049,SIRIUS 2 (GE-1E),GEO,13018.77083233,1 25049U 97071A   13018.77083233  .00000049  00000-0  10000-3 0  3148\,2 25049 003.5952 067.7519 0002701 299.7271 060.1852 00.99404288 55521,3.5952,0.0002701,0.99404288,67.7519,299.7271,60.1852
25049,SIRIUS 2 (GE-1E),GEO,13020.78269506,1 25049U 97071A   13020.78269506  .00000018  00000-0  10000-3 0  3158\,2 25049 003.5996 067.7324 0002720 299.6235 060.2788 00.99405215 55545,3.5996,0.000272,0.99405215,67.7324,299.6235,60.2788
25049,SIRIUS 2 (GE-1E),GEO,13022.79461077,1 25049U 97071A   13022.79461077 -.00000020  00000-0  10000-3 0  3163\,2 25049 003.6039 067.7135 0002839 300.0700 059.8466 00.99406077 55565,3.6039,0.0002839,0.99406077,67.7135,300.07,59.8466
25049,SIRIUS 2 (GE-1E),GEO,13023.80068017,1 25049U 97071A   13023.80068017  .00000000  00000-0  10000-3 0  3171\,2 25049 003.6056 067.7153 0003187 303.6286 056.3084 00.99402463 55573,3.6056,0.0003187,0.99402463,67.7153,303.6286,56.3084
25049,SIRIUS 2 (GE-1E),GEO,13024.80660354,1 25049U 97071A   13024.80660354 -.00000060  00000-0  10000-3 0  3171\,2 25049 003.6082 067.6935 0002835 300.0598 059.9078 00.99406838 55588,3.6082,0.0002835,0.99406838,67.6935,300.0598,59.9078
25049,SIRIUS 2 (GE-1E),GEO,13026.81863201,1 25049U 97071A   13026.81863201 -.00000100  00000-0  10000-3 0  3186\,2 25049 003.6124 067.6732 0002840 300.2412 059.7955 00.99407453 55602,3.6124,0.000284,0.99407453,67.6732,300.2412,59.7955
25049,SIRIUS 2 (GE-1E),GEO,13028.83063010,1 25049U 97071A   13028.83063010 -.00000138  00000-0  10000-3 0  3192\,2 25049 003.6167 067.6549 0002856 300.2731 059.8233 00.99407890 55623,3.6167,0.0002856,0.9940789,67.6549,300.2731,59.8233
25049,SIRIUS 2 (GE-1E),GEO,13030.84251328,1 25049U 97071A   13030.84251328 -.00000174  00000-0  10000-3 0  3209\,2 25049 003.6209 067.6376 0002959 298.9106 061.2059 00.99408135 55649,3.6209,0.0002959,0.99408135,67.6376,298.9106,61.2059
25049,SIRIUS 2 (GE-1E),GEO,13032.85428264,1 25049U 97071A   13032.85428264 -.00000207  00000-0  10000-3 0  3215\,2 25049 003.6251 067.6184 0003031 299.5195 060.5785 00.99408192 55663,3.6251,0.0003031,0.99408192,67.6184,299.5195,60.5785
25049,SIRIUS 2 (GE-1E),GEO,13034.86603070,1 25049U 97071A   13034.86603070 -.00000238  00000-0  10000-3 0  3223\,2 25049 003.6293 067.6004 0003272 302.6569 057.4113 00.99408034 55685,3.6293,0.0003272,0.99408034,67.6004,302.6569,57.4113
25049,SIRIUS 2 (GE-1E),GEO,13036.87788415,1 25049U 97071A   13036.87788415 -.00000263  00000-0  10000-3 0  3232\,2 25049 003.6335 067.5807 0003346 302.7583 057.3207 00.99407740 55700,3.6335,0.0003346,0.9940774,67.5807,302.7583,57.3207
25049,SIRIUS 2 (GE-1E),GEO,13038.88986591,1 25049U 97071A   13038.88986591 -.00000280  00000-0  10000-3 0  3240\,2 25049 003.6379 067.5622 0003463 303.6746 056.4566 00.99407285 55728,3.6379,0.0003463,0.99407285,67.5622,303.6746,56.4566
25049,SIRIUS 2 (GE-1E),GEO,13040.90188638,1 25049U 97071A   13040.90188638 -.00000285  00000-0  10000-3 0  3258\,2 25049 003.6422 067.5425 0003558 304.4528 055.7423 00.99406717 55745,3.6422,0.0003558,0.99406717,67.5425,304.4528,55.7423
25049,SIRIUS 2 (GE-1E),GEO,13042.91383037,1 25049U 97071A   13042.91383037 -.00000278  00000-0  10000-3 0  3264\,2 25049 003.6465 067.5236 0003597 305.1044 055.1217 00.99406051 55764,3.6465,0.0003597,0.99406051,67.5236,305.1044,55.1217
25049,SIRIUS 2 (GE-1E),GEO,13044.92567530,1 25049U 97071A   13044.92567530 -.00000263  00000-0  10000-3 0  3274\,2 25049 003.6508 067.5043 0003653 305.9798 054.2377 00.99405329 55781,3.6508,0.0003653,0.99405329,67.5043,305.9798,54.2377
25049,SIRIUS 2 (GE-1E),GEO,13046.93748800,1 25049U 97071A   13046.93748800 -.00000242  00000-0  10000-3 0  3286\,2 25049 003.6551 067.4856 0003889 308.3363 051.8548 00.99404592 55803,3.6551,0.0003889,0.99404592,67.4856,308.3363,51.8548
25049,SIRIUS 2 (GE-1E),GEO,13048.94935639,1 25049U 97071A   13048.94935639 -.00000217  00000-0  10000-3 0  3290\,2 25049 003.6595 067.4659 0004003 309.5383 050.6441 00.99403871 55826,3.6595,0.0004003,0.99403871,67.4659,309.5383,50.6441
25049,SIRIUS 2 (GE-1E),GEO,13050.96130939,1 25049U 97071A   13050.96130939 -.00000188  00000-0  10000-3 0  3304\,2 25049 003.6640 067.4449 0003943 308.5984 051.6047 00.99403200 55843,3.664,0.0003943,0.994032,67.4449,308.5984,51.6047
25049,SIRIUS 2 (GE-1E),GEO,13052.97335538,1 25049U 97071A   13052.97335538 -.00000155  00000-0  10000-3 0  3314\,2 25049 003.6685 067.4247 0003926 307.2616 052.9894 00.99402588 55861,3.6685,0.0003926,0.99402588,67.4247,307.2616,52.9894
25049,SIRIUS 2 (GE-1E),GEO,13054.98543327,1 25049U 97071A   13054.98543327 -.00000119  00000-0  10000-3 0  3325\,2 25049 003.6728 067.4060 0003977 309.1681 051.1347 00.99402042 55882,3.6728,0.0003977,0.99402042,67.406,309.1681,51.1347
25049,SIRIUS 2 (GE-1E),GEO,13056.99745897,1 25049U 97071A   13056.99745897 -.00000082  00000-0  10000-3 0  3334\,2 25049 003.6770 067.3873 0004077 308.1658 052.1676 00.99401610 55904,3.677,0.0004077,0.9940161,67.3873,308.1658,52.1676
25049,SIRIUS 2 (GE-1E),GEO,13060.01529783,1 25049U 97071A   13060.01529783 -.00000031  00000-0  10000-3 0  3341\,2 25049 003.6833 067.3587 0004155 307.8349 052.4662 00.99401177 55935,3.6833,0.0004155,0.99401177,67.3587,307.8349,52.4662
